HORYU-4                 
1 41340U 16012D   19295.69767654  .00000478  00000-0  29537-4 0  9997
2 41340  31.0056  52.0772 0014134 299.3269  60.5955 15.01337669201964
E-ST@R-II               
1 41459U 16025D   19296.21338225  .00000985  00000-0  54598-4 0  9997
2 41459  98.0995  29.0807 0166267 293.3527  65.0352 15.05715050191584
AAUSAT 4                
1 41460U 16025E   19296.09377574  .00000822  00000-0  45360-4 0  9992
2 41460  98.0925  30.5225 0155756 285.1323  73.2728 15.07703734191715
DIWATA-1                
1 41463U 98067HT  19296.09939332  .00036512  00000-0  13506-3 0  9998
2 41463  51.6286 307.8492 0002447  40.2969  25.1373 15.87771496199812
BEESAT-4                
1 41619U 16040W   19296.16856575  .00001258  00000-0  55777-4 0  9993
2 41619  97.3539 355.9577 0009789 303.4866  56.5435 15.23387161173111
CANX-7                  
1 41788U 16059F   19296.14137109  .00005314  00000-0  79086-3 0  9998
2 41788  98.2442  13.7034 0021625 329.7593  30.2352 14.75205139164644
RAVAN                   
1 41849U 16067B   19296.08266182  .00000412  00000-0  39764-4 0  9996
2 41849  97.9236  37.1201 0007402 321.5075  38.5618 14.98325114160921
CELTEE 1                
1 41850U 16067C   19295.79962251 -.00000212  00000-0 -13081-4 0  9999
2 41850  97.9200  35.2196 0008155 330.1889  29.8867 14.97060372160796
OPTICUBE 04             
1 41851U 16067D   19295.82550463  .00000601  00000-0  57715-4 0  9994
2 41851  97.9196  34.9823 0007876 334.0078  26.0746 14.96840858160784
AEROCUBE 8D             
1 41852U 16067E   19295.83509574  .00000682  00000-0  64913-4 0  9990
2 41852  97.9211  34.8183 0008677 334.3648  25.7142 14.96775727160763
AEROCUBE 8C             
1 41853U 16067F   19295.86099641 -.00000287  00000-0 -19781-4 0  9999
2 41853  97.9204  34.7709 0009419 333.1062  26.9670 14.96736878160764
PROMETHEUS 2-1          
1 41854U 16067G   19295.80901324  .00000326  00000-0  33673-4 0  9992
2 41854  97.9207  34.9112 0009476 331.0738  28.9956 14.96980679160767
PROMETHEUS 2-3          
1 41855U 16067H   19296.07824761  .00000404  00000-0  40441-4 0  9990
2 41855  97.9209  35.2049 0009590 330.5597  29.5082 14.96987268160800
INS-1B                  
1 41954U 17008G   19295.88456112  .00001098  00000-0  47934-4 0  9999
2 41954  97.3869 359.1966 0010648  66.6613 293.5744 15.24193592149024
BGUSAT                  
1 41999U 17008BD  19295.74962220  .00001926  00000-0  76470-4 0  9992
2 41999  97.3957   1.9867 0009702  77.6548 282.5776 15.26518046148525
DIDO-2                  
1 42000U 17008BE  19295.74902953  .00000782  00000-0  35090-4 0  9995
2 42000  97.3882 359.6144 0010183  82.9689 277.2706 15.24072911148402
PEASSS                  
1 42015U 17008BV  19295.76282204  .00000996  00000-0  42653-4 0  9993
2 42015  97.3893   0.7866 0008096  87.5728 272.6436 15.25082476148968
AL-FARABI 1             
1 42016U 17008BW  19295.90397111  .00001288  00000-0  53250-4 0  9994
2 42016  97.3910   1.6187 0007924  86.5816 273.6328 15.25775421149142
NAYIF-1 (EO-88)         
1 42017U 17008BX  19295.75748799  .00001308  00000-0  53961-4 0  9992
2 42017  97.3906   1.4849 0007945  87.0494 273.1654 15.25810821149143
ALTAIR PATHFINDER       
1 42711U 98067LS  19295.62389957  .00095993  14815-4  25150-3 0  9994
2 42711  51.6306 351.5938 0004854   1.2169 358.8850 15.94802208139078
NSIGHT                  
1 42726U 98067MF  19295.70213719  .00026580  00000-0  16410-3 0  9993
2 42726  51.6341  21.9320 0005194 319.6257  40.4357 15.76925132137669
UCLSAT                  
1 42765U 17036A   19296.15832801  .00001171  00000-0  52712-4 0  9997
2 42765  97.3368 351.3795 0012552 139.1471 221.0709 15.22968270129719
LITUANICASAT-2          
1 42768U 17036D   19296.12743586  .00001780  00000-0  78028-4 0  9992
2 42768  97.3409 351.0355 0016317 131.7777 228.4857 15.23166283129559
AALTO-1                 
1 42775U 17036L   19295.81125351  .00000669  00000-0  32713-4 0  9995
2 42775  97.3349 349.4899 0015209 133.3807 226.8698 15.21487086129386
URSA MAIOR              
1 42776U 17036M   19295.89209115  .00000740  00000-0  35702-4 0  9996
2 42776  97.3360 349.7590 0015046 133.0258 227.2242 15.21633170129407
COMPASS 2               
1 42777U 17036N   19296.14030419  .00001397  00000-0  61887-4 0  9997
2 42777  97.3404 351.5143 0013778 132.0432 228.1980 15.23191970129515
DIAMOND RED             
1 42783U 17036U   19295.85556834  .00000796  00000-0  37369-4 0  9995
2 42783  97.3368 350.5799 0013191 141.6997 218.5179 15.22384558129448
PEGASUS                 
1 42784U 17036V   19295.80958020  .00000966  00000-0  44339-4 0  9998
2 42784  97.3372 350.8177 0013083 141.1582 219.0597 15.22703222129456
DIAMOND GREEN           
1 42785U 17036W   19295.72295851  .00000850  00000-0  39729-4 0  9995
2 42785  97.3371 350.4781 0013067 142.6320 217.5828 15.22383864129491
DIAMOND BLUE            
1 42786U 17036X   19295.72212215  .00000846  00000-0  39545-4 0  9990
2 42786  97.3370 350.4745 0012907 142.7722 217.4412 15.22384375129418
NUDTSAT                 
1 42787U 17036Y   19295.92130978  .00001616  00000-0  70013-4 0  9999
2 42787  97.3420 351.8255 0010929 135.7231 224.4881 15.23770246129364
SUCHAI                  
1 42788U 17036Z   19295.71531753  .00001158  00000-0  51887-4 0  9992
2 42788  97.3378 351.1134 0012673 140.3133 219.9034 15.23156392129535
SKCUBE                  
1 42789U 17036AA  19295.80561282  .00001075  00000-0  48516-4 0  9996
2 42789  97.3374 351.1182 0012549 140.1514 220.0646 15.23040296129467
VZLUSAT-1               
1 42790U 17036AB  19295.71153706  .00001449  00000-0  63069-4 0  9991
2 42790  97.3391 351.6185 0012147 139.1148 221.1003 15.23759568129481
ROBUSTA-1B              
1 42792U 17036AD  19295.85369603  .00001132  00000-0  50699-4 0  9997
2 42792  97.3374 351.3460 0012115 140.2994 219.9132 15.23218244129494
CICERO 6                
1 42793U 17036AE  19295.75209901  .00000739  00000-0  34600-4 0  9997
2 42793  97.3355 350.9230 0011337 141.9859 218.2180 15.22742093129530
D-SAT                   
1 42794U 17036AF  19295.89876338  .00000104  00000-0  14212-4 0  9990
2 42794  97.5259 334.9578 0128044  81.1055 280.4635 14.91151214127145
CORVUS BC2              
1 42846U 17042X   19296.16591962  .00000265  00000-0  31430-4 0  9992
2 42846  97.5486 185.0101 0009654   2.8063 357.3209 14.92013255123876
CORVUS BC1              
1 42847U 17042Y   19295.77535179  .00000332  00000-0  37945-4 0  9999
2 42847  97.5487 184.7633 0009316   3.5893 356.5391 14.92113722123815
MIRATA                  
1 43015U 17073C   19295.72009175  .00000757  00000-0  63494-4 0  9997
2 43015  97.7172 212.0246 0256111 106.9346 256.0109 14.79158918103921
MAKERSAT 0              
1 43016U 17073D   19295.75706394  .00000526  00000-0  45651-4 0  9997
2 43016  97.7207 212.2636 0258465 107.3746 255.5908 14.78865220103920
ASTERIA                 
1 43020U 98067NH  19295.72067658  .00030999  00000-0  19731-3 0  9990
2 43020  51.6417  33.6229 0001703 297.5115  62.5712 15.76152042109692
DELLINGR (RBLE)         
1 43021U 98067NJ  19295.90997793  .00008325  00000-0  88414-4 0  9996
2 43021  51.6379  53.5348 0001799 225.5407 134.5442 15.65029123109447
AEROCUBE 7B (OCSD B)    
1 43042U 17071F   19296.11725462  .00002448  00000-0  66293-4 0  9992
2 43042  51.6373 154.5472 0003917 249.9643 110.0921 15.41865102105581
AEROCUBE 7C (OCSD C)    
1 43043U 17071G   19295.85801660  .00002217  00000-0  60948-4 0  9993
2 43043  51.6374 155.8308 0004124 254.3340 105.7191 15.41858061105519
CHEFSAT                 
1 43044U 17071H   19295.81058737  .00005362  00000-0  12061-3 0  9995
2 43044  51.6382 148.1765 0003954 251.6457 108.4099 15.45004951105613
ASGARDIA 1              
1 43049U 17071N   19295.86496188  .00002400  00000-0  64903-4 0  9994
2 43049  51.6382 155.1701 0001637 271.3833  88.6965 15.41979509105526
ISARA                   
1 43050U 17071P   19295.80302113  .00004394  00000-0  10233-3 0  9994
2 43050  51.6367 149.5648 0001462 261.6482  98.4339 15.44441866105590
PROPCUBE 2 (FAUNA)      
1 43052U 17071R   19295.91115455  .00002501  00000-0  66560-4 0  9992
2 43052  51.6380 153.9978 0001591 266.3806  93.6998 15.42302729105531
CORVUS BC3              
1 43118U 18004H   19295.76081960  .00000655  00000-0  30857-4 0  9996
2 43118  97.4743   2.6244 0010900 161.7752 198.3878 15.22996783 98665
MICROMAS-2A             
1 43131U 18004W   19295.85225236  .00001559  00000-0  66415-4 0  9990
2 43131  97.4773   3.7089 0009892 161.4256 198.7344 15.24449158 98737
SPACEBEE-4              
1 43139U 18004AE  19295.86526948  .00002248  00000-0  91814-4 0  9990
2 43139  97.4796   4.4045 0009362 162.9139 197.2416 15.25415534 98778
SPACEBEE-3              
1 43140U 18004AF  19295.86265853  .00002750  00000-0  10964-3 0  9991
2 43140  97.4808   4.7701 0009169 162.2380 197.9180 15.26039598 98792
SPACEBEE-2              
1 43141U 18004AG  19295.75159653  .00002886  00000-0  11416-3 0  9993
2 43141  97.4816   4.7858 0009162 162.0019 198.1546 15.26253168 98784
SPACEBEE-1              
1 43142U 18004AH  19295.89689619  .00003209  00000-0  12572-3 0  9993
2 43142  97.4819   5.0744 0009154 161.8999 198.2567 15.26494711 98809
CICERO 7                
1 43143U 18004AJ  19296.19385554  .00001591  00000-0  67520-4 0  9995
2 43143  97.4757   4.2622 0007841 167.0002 193.1439 15.24559505 98804
GOMX-4B                 
1 43196U 18015E   19295.96723500  .00000429  00000-0  20617-4 0  9991
2 43196  97.4074  61.8601 0017700 222.2605 137.7278 15.24037171 95574
GOMX-4A                 
1 43197U 18015F   19296.08761792  .00000628  00000-0  28694-4 0  9995
2 43197  97.4077  62.0160 0017933 221.2017 224.3530 15.24151298 95600
1KUNS-PF                
1 43466U 98067NP  19295.76600629  .00026229  00000-0  20736-3 0  9997
2 43466  51.6361  52.5040 0001387 303.9586  56.1280 15.71173527 82704
